0 COSMOS 1109
1 11417U 79058A   13282.42674508 -.00000820  00000-0  00000+0 0  3348
2 11417 067.3335 099.1862 6736354 359.3151 001.3962 02.01388728140543
0 COSMOS 1109
1 11417U 79058A   13286.39995356 -.00000704  00000-0  00000+0 0  3357
2 11417 067.3350 098.8318 6734663 359.2169 001.8891 02.01382031140627
0 COSMOS 1109
1 11417U 79058A   13290.37008560 -.00000712  00000-0  00000+0 0  3362
2 11417 067.3357 098.4804 6732892 359.0957 000.0747 02.01374704140691
0 COSMOS 1109
1 11417U 79058A   13290.62368854 -.00000714  00000-0  00000+0 0  3378
2 11417 067.3379 098.4562 6733069 359.1101 183.9092 02.01375252140700
0 COSMOS 1109
1 11417U 79058A   13295.34034648 -.00000613  00000-0  00000+0 0  3382
2 11417 067.3423 098.0373 6731240 358.9910 003.1691 02.01368046140802
